ONEWEB-0249             
1 48967U 21060A   24314.78746509 -.00000141  00000+0 -40238-3 0  9990
2 48967  87.9104 345.2014 0001708  92.1493 267.9833 13.16597436162718
ONEWEB-0250             
1 48968U 21060B   24314.78620116  .00000063  00000+0  11338-3 0  9996
2 48968  87.9106 344.8630 0001826  66.9022 293.2307 13.25631758162789
ONEWEB-0252             
1 48970U 21060D   24314.81914033 -.00000029  00000+0 -10921-3 0  9998
2 48970  87.9104 345.1882 0002202  99.7280 260.4099 13.16597692162762
ONEWEB-0253             
1 48971U 21060E   24314.80806563 -.00000034  00000+0 -12192-3 0  9994
2 48971  87.9102 345.1990 0002004  87.9813 272.1547 13.16595810162692
ONEWEB-0254             
1 48972U 21060F   24314.81756179  .00000042  00000+0  75754-4 0  9994
2 48972  87.9104 345.1777 0001973  77.6647 282.4704 13.16596448162690
ONEWEB-0255             
1 48973U 21060G   24314.85556371  .00000219  00000+0  54036-3 0  9996
2 48973  87.9106 345.2046 0001889  83.8835 276.2511 13.16595929164060
ONEWEB-0256             
1 48974U 21060H   24314.80568450  .00000034  00000+0  55313-4 0  9998
2 48974  87.9109 345.2220 0001957  98.1551 261.9802 13.16593892162731
ONEWEB-0257             
1 48975U 21060J   24314.83814724  .00000084  00000+0  18661-3 0  9999
2 48975  87.9107 345.1825 0002031  93.4732 266.6631 13.16595176162697
